IRIDIUM 7               
1 24793U 97020B   24239.57130884  .00000753  00000+0  25582-3 0  9998
2 24793  86.3951 300.3581 0002287  87.0681 273.0778 14.35376382429627
IRIDIUM 5               
1 24795U 97020D   24239.40991292  .00007821  00000+0  72359-3 0  9997
2 24795  86.3918 219.0037 0122704 112.2950 249.1340 14.88740976441514
IRIDIUM 4               
1 24796U 97020E   24239.46307407  .00000753  00000+0  25111-3 0  9994
2 24796  86.3942 297.4733 0002387  92.5823 267.5647 14.36303479430156
IRIDIUM 914             
1 24836U 97030A   24239.23551532  .00000911  00000+0  28210-3 0  9994
2 24836  86.3940 307.0520 0003913 102.5971 257.5666 14.40189272564665
IRIDIUM 16              
1 24841U 97030F   24239.31412796  .00001045  00000+0  33874-3 0  9998
2 24841  86.4075 329.1785 0001481  23.4531 336.6734 14.38082352424613
